C/2016 Q4 (Kowalski),e,7.2436,271.2945,99.7978,17.04477,0.0140061,0.58345772,27.5926,06/26.0/2023,2000,g  7.0,4.0
# From MPEC 2021-N06
C/2016 R2 (PANSTARRS),e,58.3550,80.5041,33.0915,483.5481,0.0000927,0.99463278,0.0000,05/09.4801/2018,2000,g  7.0,4.0
# From MPEC 2022-K19
P/2016 R4 (Gibbs),e,10.8756,168.2615,174.1449,5.333386,0.0800202,0.47596546,202.2705,06/26.0/2023,2000,g 12.5,4.0
# From MPC105543
P/2016 S1 (PANSTARRS),e,94.7358,227.6665,273.2376,8.274278,0.0414104,0.71065504,94.8986,06/26.0/2023,2000,g 12.0,4.0
# From MPC106345
P/2016 WM48 (Lemmon),e,117.6064,59.9425,36.1560,8.170883,0.0421989,0.78352075,97.6126,06/26.0/2023,2000,g 15.0,4.0
# From MPEC 2021-P47
C/2016 X1 (Lemmon),e,26.4619,256.3276,224.4929,1475,0.0000174,0.99487722,0.0000,04/28.1573/2019,2000,g  6.0,4.0
# From MPEC 2022-OB6
C/2017 B3 (LINEAR),e,54.1638,2.1793,284.8334,82340,0.0000000,0.99995226,0.0000,01/31.9893/2019,2000,g  6.0,4.0
# From MPC103847
P/2017 B4 (PANSTARRS),e,20.0584,121.4578,11.0197,4.410520,0.1064068,0.36495152,359.9130,01/05.0/2017,2000,g 14.5,4.0
# From MPEC 2022-OB6
P/2017 D1 (Fuls),e,20.7697,82.1936,7.9582,4.826985,0.0929373,0.43721387,237.7663,06/26.0/2023,2000,g 14.0,4.0
# From MPEC 2022-OB6
P/2017 D4 (PANSTARRS),e,10.5547,264.9506,212.1025,7.546558,0.0475424,0.62933235,118.1003,06/26.0/2023,2000,g 13.0,4.0
# From MPC104794
P/2017 G1 (PANSTARRS),e,4.7862,249.6911,224.3207,7.273548,0.0502440,0.65409884,131.3827,06/26.0/2023,2000,g 13.5,4.0
# From MPC108595
P/2017 G2 (PANSTARRS),e,47.9640,79.8619,105.3604,8.047819,0.0431705,0.64765061,95.3223,06/26.0/2023,2000,g 13.0,4.0
# From MPEC 2023-J95
C/2017 K2 (PANSTARRS),h,12/19.6882/2022,87.5637,88.2355,236.2039,1.000717,1.796959,2000,1.5,4.0
# From MPEC 2021-N06
P/2017 K3 (Gasparovic),e,4.2736,354.3039,253.3833,5.584971,0.0746746,0.57896978,165.8696,06/26.0/2023,2000,g 14.5,4.0
# From MPEC 2021-P47
C/2017 K5 (PANSTARRS),h,03/27.2343/2020,82.2629,102.4000,172.0641,1.004917,7.684218,2000,5.0,4.0
# From MPEC 2022-OB6
C/2017 M4 (ATLAS),h,01/17.9582/2019,105.6331,65.9908,167.5802,1.001087,3.249414,2000,6.0,4.0
# From MPC118841
C/2017 M5 (TOTAS),h,06/03.6666/2018,15.8595,216.2880,92.8849,1.004604,6.008487,2000,6.5,4.0
# From MPC114599
P/2017 P1 (PANSTARRS),e,7.6886,221.3560,122.8140,7.916433,0.0442496,0.31057062,80.9296,06/26.0/2023,2000,g 10.0,4.0
# From MPC114599
C/2017 S3 (PANSTARRS),h,08/16.9374/2018,99.1631,171.2254,255.7646,1.000095,0.203991,2000,12.9,4.0
# From MPEC 2022-OB6
P/2017 S8 (PANSTARRS),e,29.8483,191.5191,254.8710,2.778545,0.2128030,0.39088672,60.3850,06/26.0/2023,2000,g 16.0,4.0
# From MPEC 2022-YN2
C/2017 T2 (PANSTARRS),e,57.2754,64.4270,92.8923,1522,0.0000166,0.99894053,0.0000,05/04.8954/2020,2000,g  5.0,4.0
# From MPC114600
C/2017 T3 (ATLAS),e,88.2826,230.2513,246.7822,1300,0.0000210,0.99936761,0.0000,07/19.5430/2018,2000,g 10.0,4.0
# From MPC115882
P/2017 TW13 (Lemmon),e,44.8518,322.2295,119.9235,7.135065,0.0517139,0.71046630,94.6246,06/26.0/2023,2000,g 15.0,2.0
# From MPEC 2022-K19
P/2017 U3 (PANSTARRS),e,15.9178,165.1012,296.2321,4.923744,0.0902113,0.09989198,138.5527,06/26.0/2023,2000,g 11.0,4.0
# From MPEC 2023-CD7
C/2017 U4 (PANSTARRS),e,158.2005,245.9037,158.9860,7318,0.0000016,0.99894419,0.0000,09/21.3504/2018,2000,g  7.0,4.0
# From MPEC 2023-A50
C/2017 U7 (PANSTARRS),h,09/15.5611/2019,142.6201,276.2779,326.4452,1.002017,6.428340,2000,8.3,2.0
# From MPC114601
P/2017 W3 (Gibbs),e,18.1700,210.1868,327.8010,7.828692,0.0449956,0.50631866,87.5467,06/26.0/2023,2000,g 10.5,4.0
# From MPEC 2021-R75
C/2017 X1 (PANSTARRS),e,31.3443,251.1655,283.0901,30.97211,0.0057180,0.84951409,10.5106,06/26.0/2023,2000,g 10.0,4.0
# From MPEC 2022-QD9
C/2017 Y2 (PANSTARRS),h,11/05.1208/2020,128.4416,66.0194,147.9308,1.001524,4.631836,2000,15.0,4.0
# From MPC111770
P/2017 Y3 (Leonard),e,27.5727,153.8755,67.5483,9.815487,0.0320506,0.86936861,62.9496,06/26.0/2023,2000,g 16.5,4.0
# From MPEC 2021-P47
C/2018 A3 (ATLAS),e,139.5430,194.2971,86.3609,357.0184,0.0001461,0.99081168,0.0000,01/10.4282/2019,2000,g  8.5,4.0
# From MPEC 2023-J29
C/2018 A4 (PANSTARRS),e,3.1514,97.5688,355.9575,12.18677,0.0231671,0.80404325,43.1622,06/26.0/2023,2000,g 14.0,4.0
# From MPC109147
P/2018 A5 (PANSTARRS),e,23.6169,87.7879,359.4890,5.627529,0.0738291,0.52368212,155.0476,06/26.0/2023,2000,g 15.0,4.0
# From MPEC 2022-ST7
C/2018 A6 (Gibbs),e,77.0713,340.3890,264.3379,15.03474,0.0169067,0.79925007,24.4438,06/26.0/2023,2000,g  9.0,4.0
# From MPC114601
P/2018 C1 (Lemmon-Read),e,5.1096,270.3153,235.7004,5.652033,0.0733495,0.53206584,142.9436,06/26.0/2023,2000,g 13.5,4.0
# From MPC114601
C/2018 C2 (Lemmon),e,34.4631,91.2898,133.9588,9488,0.0000011,0.99979343,0.0000,05/30.9571/2018,2000,g 13.0,4.0
# From MPEC 2022-M88
C/2018 DO4 (Lemmon),e,160.4430,251.4343,176.3187,25.33737,0.0077279,0.90469074,10.8909,06/26.0/2023,2000,g 11.0,4.0
# From MPC114602
C/2018 E1 (ATLAS),e,72.4931,146.8076,299.2779,53.88514,0.0024917,0.95007100,4.7208,06/26.0/2023,2000,g 10.5,4.0
# From MPC114602
C/2018 EN4 (NEOWISE),e,81.9679,136.1309,35.0083,17.89464,0.0130203,0.91836339,24.0901,06/26.0/2023,2000,g 15.0,4.0
# From MPEC 2023-CD7
C/2018 EF9 (Lemmon),e,84.6429,172.5717,72.6380,440.1998,0.0001067,0.99644938,0.0000,05/20.7277/2018,2000,g 18.0,2.0
# From MPEC 2021-R75
C/2018 F1 (Grauer),e,46.0872,177.2788,71.5693,234.7007,0.0002741,0.98722986,0.0000,12/11.5044/2018,2000,g 11.5,4.0
# From MPEC 2023-A50
C/2018 F4 (PANSTARRS),e,78.0842,26.5156,263.2134,4518,0.0000032,0.99923757,0.0000,12/02.7436/2019,2000,g 11.0,6.0
# From MPEC 2021-Y10
C/2018 F4-A,e,78.0844,26.5158,263.2102,4224,0.0000036,0.99918460,0.0000,12/02.7318/2019,2000,g 11.0,6.0
# From MPEC 2023-D41
C/2018 F4-B,e,78.0853,26.5153,263.1960,4740,0.0000030,0.99927340,0.0000,12/02.6685/2019,2000,g 11.0,6.0
# From MPC114602
P/2018 H2 (PANSTARRS),e,7.4437,67.6582,120.1012,4.386446,0.1072840,0.54204940,213.7505,06/26.0/2023,2000,g 16.6,2.0
# From MPEC 2023-M14
P/2018 HT3 (NEOWISE),e,29.2783,283.2097,216.3682,2.974969,0.1920792,0.82555910,16.9761,06/26.0/2023,2000,g 16.3,4.0
# From MPEC 2021-R75
C/2018 KJ3 (Lemmon),e,136.6612,91.6648,217.6480,912.7479,0.0000357,0.99602824,0.0000,09/09.9398/2019,2000,g 12.2,2.0
# From MPC114602
P/2018 L1 (PANSTARRS),e,10.5774,268.6053,18.0310,3.654465,0.1410810,0.48159493,238.1336,06/26.0/2023,2000,g 15.0,4.0
# From MPEC 2021-P47
C/2018 L2 (ATLAS),e,67.2351,242.9945,56.3363,253.9864,0.0002435,0.99323885,0.0000,12/01.8585/2018,2000,g 10.0,4.0
# From MPC114603
P/2018 L4 (PANSTARRS),e,26.6124,145.1875,140.6056,4.946113,0.0896000,0.65879608,160.5479,06/26.0/2023,2000,g 17.5,4.0
# From MPC119996
P/2018 L5 (Leonard),e,2.2091,219.0340,93.9637,3.629144,0.1425600,0.36408478,267.6486,06/26.0/2023,2000,g 14.5,4.0
# From MPC117070
C/2018 M1 (Catalina),e,37.2638,339.4277,14.2618,21.52327,0.0098706,0.93927491,17.8768,06/26.0/2023,2000,g 15.5,4.0
# From MPEC 2022-M21
C/2018 N1 (NEOWISE),e,159.3976,292.5695,354.7425,516.4011,0.0000840,0.99746828,0.0000,08/03.2025/2018,2000,g 15.5,4.0
# From MPEC 2022-YN2
C/2018 N2 (ASASSN),h,11/11.5044/2019,77.5552,25.2027,24.5094,1.001176,3.128972,2000,6.0,4.0
# From MPC114603
C/2018 O1 (ATLAS),e,153.9890,87.8183,162.7145,28.08835,0.0066209,0.94459979,11.6406,06/26.0/2023,2000,g 17.0,4.0
# From MPEC 2023-J29
P/2018 P3 (PANSTARRS),e,8.9148,59.1601,306.0039,3.003755,0.1893247,0.41712655,325.2152,06/26.0/2023,2000,g 14.5,4.0
# From MPC114603
P/2018 P4 (PANSTARRS),e,23.1054,353.0696,8.4724,6.687027,0.0569973,0.45041399,96.3150,06/26.0/2023,2000,g 12.0,4.0
# From MPEC 2021-P47
C/2018 P5 (PANSTARRS),e,7.2465,216.1910,132.0149,12.84888,0.0213996,0.64279133,33.7885,06/26.0/2023,2000,g 11.0,4.0
# From MPC118841
C/2018 R3 (Lemmon),e,69.7058,324.5541,112.7424,1591,0.0000155,0.99919368,0.0000,06/07.9245/2019,2000,g  9.5,4.0
# From MPC114603
C/2018 R5 (Lemmon),e,103.7427,171.1291,178.2382,22.92443,0.0089796,0.84146772,14.6152,06/26.0/2023,2000,g 11.5,4.0
# From MPEC 2022-QC6
C/2018 S2 (TESS),e,64.1417,85.0921,290.8417,14.36325,0.0181061,0.61872741,30.6404,06/26.0/2023,2000,g  7.5,4.0
# From MPEC 2023-M14
C/2018 U1 (Lemmon),h,11/03.0832/2021,108.3200,75.4969,180.4679,1.001442,4.992514,2000,8.9,4.0
# From MPC114604
C/2018 V1 (Machholz-Fujikawa-Iwamoto),h,12/02.8783/2018,144.1145,129.1511,89.1972,1.000374,0.391050,2000,12.0,4.0
# From MPC115884
C/2018 V2 (ATLAS),e,159.1674,357.0902,319.0639,25.09541,0.0078399,0.90088812,13.1215,06/26.0/2023,2000,g 15.0,4.0
# From MPEC 2023-CD7
P/2018 VN2 (Leonard),e,18.2584,226.4434,138.8969,4.061969,0.1203924,0.47865636,222.0199,06/26.0/2023,2000,g 15.0,4.0
# From MPEC 2022-VC5
A/2018 V3,e,164.9566,308.7201,3.6138,128.0387,0.0006803,0.98953777,0.0000,09/09.4341/2019,2000,g 15.7,2.0
# From MPEC 2022-M21
C/2018 V4 (Africano),e,69.0349,78.2628,359.9674,203.1595,0.0003404,0.98426983,0.0000,03/01.6393/2019,2000,g 12.5,4.0
# From MPEC 2021-P47
P/2018 V5 (Trujillo-Sheppard),e,10.5876,171.2843,260.6948,8.963832,0.0367251,0.47572225,63.3784,06/26.0/2023,2000,g 12.5,4.0
# From MPEC 2021-P47
C/2018 W1 (Catalina),e,83.3913,233.6720,251.1967,21.69323,0.0097548,0.93741225,14.6892,06/26.0/2023,2000,g 15.5,2.0
# From MPEC 2021-P47
C/2018 W2 (Africano),h,09/05.3093/2019,116.6201,181.8301,158.1031,1.000656,1.462305,2000,9.5,4.0
# From MPEC 2023-M14
A/2018 W3,e,104.8252,251.6766,313.9604,709.8439,0.0000521,0.99395625,0.0000,04/13.0648/2021,2000,g 10.7,2.0
# From MPC119996
C/2018 X2 (Fitzsimmons),e,23.0754,340.7903,161.9421,139.2865,0.0005996,0.98478672,0.0000,07/08.3786/2019,2000,g 12.0,4.0
# From MPC114604
C/2018 X3 (PANSTARRS),e,43.4183,78.8133,359.7625,12.37912,0.0226292,0.78262414,37.0580,06/26.0/2023,2000,g 14.5,4.0
# From MPEC 2023-HD1
C/2018 Y1 (Iwamoto),e,160.4181,147.4680,357.8980,129.2125,0.0006710,0.99006031,0.0000,02/05.5596/2019,2000,g  9.0,4.0
# From MPC114605
P/2018 Y2 (Africano),e,11.6855,297.1907,162.2510,7.453271,0.0484377,0.47940815,79.2371,06/26.0/2023,2000,g 11.5,4.0
# From MPC114605
P/2019 A1 (PANSTARRS),e,13.7544,312.2522,150.7142,5.115688,0.0851820,0.56934115,146.3919,06/26.0/2023,2000,g 16.0,4.0
